NORAD_CAT_ID,OBJECT_NAME,OBJECT_TYPE,EPOCH,MEAN_MOTION,ECCENTRICITY,INCLINATION,RA_OF_ASC_NODE,ARG_OF_PERICENTER,MEAN_ANOMALY,BSTAR,MEAN_MOTION_DOT,MEAN_MOTION_DDOT,TLE_LINE0,TLE_LINE1,TLE_LINE2,SEMIMAJOR_AXIS,PERIOD,APOGEE,PERIGEE,DECAYED
53553.0,STARLINK-4501,PAYLOAD,2024-05-14 19:13:29,15.08860943,0.0001417,53.2157,164.3073,84.5919,275.5235,0.00026498,3.934e-05,0.0,0 STARLINK-4501,1 53553U 22101AC  24135.80103806  .00003934  00000-0  26498-3 0  9999,2 53553  53.2157 164.3073 0001417  84.5919 275.5235 15.08860943 96085,6917.816,95.436,540.662,538.701,0.0
53553.0,STARLINK-4501,PAYLOAD,2024-05-15 07:56:33,15.08871852,0.0001361,53.2154,161.9281,84.9741,275.1406,0.00036428,5.519e-05,0.0,0 STARLINK-4501,1 53553U 22101AC  24136.33094566  .00005519  00000-0  36428-3 0  9995,2 53553  53.2154 161.9281 0001361  84.9741 275.1406 15.08871852 96820,6917.783,95.436,540.59,538.707,0.0
53553.0,STARLINK-4501,PAYLOAD,2024-05-16 10:58:06,15.08858517,0.0001301,53.2161,156.8731,90.4938,269.6203,-1.3106e-06,-3.09e-06,0.0,0 STARLINK-4501,1 53553U 22101AC  24137.45701586 -.00000309  00000-0 -13106-5 0  9990,2 53553  53.2161 156.8731 0001301  90.4938 269.6203 15.08858517 96337,6917.824,95.436,540.589,538.789,0.0
53553.0,STARLINK-4501,PAYLOAD,2024-05-16 18:55:01,15.08854946,0.0001365,53.2168,155.3849,95.1139,265.0009,-5.5818e-05,-1.177e-05,0.0,0 STARLINK-4501,1 53553U 22101AC  24137.78821381 -.00001177  00000-0 -55818-4 0  9991,2 53553  53.2168 155.3849 0001365  95.1139 265.0009 15.08854946 97048,6917.835,95.437,540.644,538.755,0.0
53553.0,STARLINK-4501,PAYLOAD,2024-05-17 04:27:20,15.08852068,0.0001499,53.2171,153.6011,96.3746,263.7417,-0.00012084,-2.211e-05,0.0,0 STARLINK-4501,1 53553U 22101AC  24138.18565220 -.00002211  00000-0 -12084-3 0  9990,2 53553  53.2171 153.6011 0001499  96.3746 263.7417 15.08852068 96443,6917.844,95.437,540.745,538.672,0.0
53553.0,STARLINK-4501,PAYLOAD,2024-05-17 10:48:52,15.08856426,0.0001471,53.2181,152.4113,100.1509,259.9649,-8.9175e-05,-1.708e-05,0.0,0 STARLINK-4501,1 53553U 22101AC  24138.45061044 -.00001708  00000-0 -89175-4 0  9991,2 53553  53.2181 152.4113 0001471 100.1509 259.9649 15.08856426 97149,6917.83,95.437,540.713,538.678,0.0
53553.0,STARLINK-4501,PAYLOAD,2024-05-18 04:18:07,15.08839078,0.0001546,53.2176,149.1395,105.9244,254.1918,3.4026e-05,2.54e-06,0.0,0 STARLINK-4501,1 53553U 22101AC  24139.17925482  .00000254  00000-0  34026-4 0  9994,2 53553  53.2176 149.1395 0001546 105.9244 254.1918 15.08839078 96598,6917.883,95.438,540.818,538.679,0.0
53553.0,STARLINK-4501,PAYLOAD,2024-05-18 10:39:40,15.08837559,0.0001459,53.2169,147.9521,99.5525,260.5632,3.0834e-06,-2.39e-06,0.0,0 STARLINK-4501,1 53553U 22101AC  24139.44421658 -.00000239  00000-0  30834-5 0  9998,2 53553  53.2169 147.9521 0001459  99.5525 260.5632 15.08837559 97294,6917.888,95.438,540.762,538.744,0.0
53553.0,STARLINK-4501,PAYLOAD,2024-05-18 17:01:12,15.08840605,0.0001459,53.2171,146.7628,99.5198,260.5959,2.5787e-05,1.22e-06,0.0,0 STARLINK-4501,1 53553U 22101AC  24139.70917384  .00000122  00000-0  25787-4 0  9993,2 53553  53.2171 146.7628 0001459  99.5198 260.5959 15.08840605 97331,6917.879,95.438,540.753,538.734,0.0
53553.0,STARLINK-4501,PAYLOAD,2024-05-19 04:08:55,15.0882981,0.0001333,53.2166,144.6808,90.8964,269.2181,-4.0495e-05,-9.32e-06,0.0,0 STARLINK-4501,1 53553U 22101AC  24140.17286425 -.00000932  00000-0 -40495-4 0  9995,2 53553  53.2166 144.6808 0001333  90.8964 269.2181 15.08829810 96740,6917.912,95.438,540.699,538.854,0.0
53553.0,STARLINK-4501,PAYLOAD,2024-05-19 07:19:41,15.08833847,0.0001478,53.2179,144.0884,98.709,261.4069,-5.6407e-05,-1.185e-05,0.0,0 STARLINK-4501,1 53553U 22101AC  24140.30534249 -.00001185  00000-0 -56407-4 0  9991,2 53553  53.2179 144.0884 0001478  98.7090 261.4069 15.08833847 97429,6917.899,95.438,540.787,538.742,0.0
53553.0,STARLINK-4501,PAYLOAD,2024-05-19 16:52:00,15.08836756,0.0001422,53.2172,142.3025,97.8075,262.3078,3.9569e-05,3.42e-06,0.0,0 STARLINK-4501,1 53553U 22101AC  24140.70277907  .00000342  00000-0  39569-4 0  9992,2 53553  53.2172 142.3025 0001422  97.8075 262.3078 15.08836756 96827,6917.89,95.438,540.739,538.772,0.0
53553.0,STARLINK-4501,PAYLOAD,2024-05-20 08:45:51,15.08838093,0.0001424,53.2174,139.329,98.4637,261.6517,9.1785e-05,1.173e-05,0.0,0 STARLINK-4501,1 53553U 22101AC  24141.36517861  .00001173  00000-0  91785-4 0  9992,2 53553  53.2174 139.3290 0001424  98.4637 261.6517 15.08838093 97582,6917.886,95.438,540.736,538.766,0.0
53553.0,STARLINK-4501,PAYLOAD,2024-05-21 03:50:29,15.08832925,0.000143,53.2176,135.7602,95.5256,264.5899,0.00010143,1.326e-05,0.0,0 STARLINK-4501,1 53553U 22101AC  24142.16006400  .00001326  00000-0  10143-3 0  9991,2 53553  53.2176 135.7602 0001430  95.5256 264.5899 15.08832925 97047,6917.902,95.438,540.756,538.778,0.0
53553.0,STARLINK-4501,PAYLOAD,2024-05-21 07:01:15,15.08834446,0.0001369,53.2171,135.165,95.9444,264.1705,8.2408e-05,1.024e-05,0.0,0 STARLINK-4501,1 53553U 22101AC  24142.29254399  .00001024  00000-0  82408-4 0  9996,2 53553  53.2171 135.1650 0001369  95.9444 264.1705 15.08834446 97720,6917.897,95.438,540.709,538.815,0.0
53553.0,STARLINK-4501,PAYLOAD,2024-05-21 22:55:07,15.088384,0.000139,53.2173,132.1911,92.8207,267.2944,4.7564e-05,4.69e-06,0.0,0 STARLINK-4501,1 53553U 22101AC  24142.95494365  .00000469  00000-0  47564-4 0  9994,2 53553  53.2173 132.1911 0001390  92.8207 267.2944 15.08838400 97820,6917.885,95.438,540.712,538.789,0.0
53553.0,STARLINK-4501,PAYLOAD,2024-05-22 06:52:02,15.08838351,0.0001349,53.2171,130.7039,92.4264,267.6883,2.7066e-05,1.43e-06,0.0,0 STARLINK-4501,1 53553U 22101AC  24143.28614467  .00000143  00000-0  27066-4 0  9992,2 53553  53.2171 130.7039 0001349  92.4264 267.6883 15.08838351 97210,6917.885,95.438,540.684,538.817,0.0
53553.0,STARLINK-4501,PAYLOAD,2024-05-23 05:07:26,15.08841017,0.000133,53.217,126.5409,91.812,268.3024,7.7437e-05,9.45e-06,0.0,0 STARLINK-4501,1 53553U 22101AC  24144.21350153  .00000945  00000-0  77437-4 0  9992,2 53553  53.2170 126.5409 0001330  91.8120 268.3024 15.08841017 98014,6917.877,95.437,540.662,538.822,0.0
53553.0,STARLINK-4501,PAYLOAD,2024-05-24 04:58:13,15.0884319,0.0001331,53.2168,122.0803,90.1773,269.9372,8.3679e-05,1.044e-05,0.0,0 STARLINK-4501,1 53553U 22101AC  24145.20709888  .00001044  00000-0  83679-4 0  9991,2 53553  53.2168 122.0803 0001331  90.1773 269.9372 15.08843190 97507,6917.871,95.437,540.656,538.815,0.0
53553.0,STARLINK-4501,PAYLOAD,2024-05-24 22:27:28,15.08841079,0.0001432,53.2167,118.8097,92.4408,267.6748,2.0842e-05,4.4e-07,0.0,0 STARLINK-4501,1 53553U 22101AC  24145.93574116  .00000044  00000-0  20842-4 0  9997,2 53553  53.2167 118.8097 0001432  92.4408 267.6748 15.08841079 98277,6917.877,95.437,540.733,538.751,0.0
53553.0,STARLINK-4501,PAYLOAD,2024-05-25 04:49:00,15.08836107,0.0001358,53.217,117.6196,96.4668,263.6479,-2.9966e-05,-7.65e-06,0.0,0 STARLINK-4501,1 53553U 22101AC  24146.20070546 -.00000765  00000-0 -29966-4 0  9994,2 53553  53.2170 117.6196 0001358  96.4668 263.6479 15.08836107 97651,6917.892,95.438,540.697,538.818,0.0
53553.0,STARLINK-4501,PAYLOAD,2024-05-25 07:59:47,15.08835333,0.0001374,53.2172,117.0253,96.3367,263.7781,-3.4492e-05,-8.37e-06,0.0,0 STARLINK-4501,1 53553U 22101AC  24146.33318629 -.00000837  00000-0 -34492-4 0  9995,2 53553  53.2172 117.0253 0001374  96.3367 263.7781 15.08835333 98337,6917.895,95.438,540.71,538.809,0.0
53553.0,STARLINK-4501,PAYLOAD,2024-05-26 07:50:34,15.08836871,0.0001274,53.2172,112.5652,94.9041,265.2096,-3.5905e-06,-3.45e-06,0.0,0 STARLINK-4501,1 53553U 22101AC  24147.32678584 -.00000345  00000-0 -35905-5 0  9999,2 53553  53.2172 112.5652 0001274  94.9041 265.2096 15.08836871 97829,6917.89,95.438,540.636,538.874,0.0
53553.0,STARLINK-4501,PAYLOAD,2024-05-26 22:09:02,15.0882628,0.0001244,53.2168,109.8892,89.0315,271.082,0.00010468,1.378e-05,0.0,0 STARLINK-4501,1 53553U 22101AC  24147.92294983  .00001378  00000-0  10468-3 0  9992,2 53553  53.2168 109.8892 0001244  89.0315 271.0820 15.08826280 98571,6917.922,95.438,540.648,538.927,0.0
53553.0,STARLINK-4501,PAYLOAD,2024-05-27 02:55:12,15.08829929,0.0001219,53.2173,108.9969,87.6746,272.4385,3.3553e-05,2.46e-06,0.0,0 STARLINK-4501,1 53553U 22101AC  24148.12167174  .00000246  00000-0  33553-4 0  9990,2 53553  53.2173 108.9969 0001219  87.6746 272.4385 15.08829929 97940,6917.911,95.438,540.619,538.933,0.0
53553.0,STARLINK-4501,PAYLOAD,2024-05-27 14:02:54,15.08831495,0.0001669,53.2188,106.9273,125.4004,234.7144,4.3137e-05,3.98e-06,0.0,0 STARLINK-4501,1 53553U 22101AC  24148.58535381  .00000398  00000-0  43137-4 0  9996,2 53553  53.2188 106.9273 0001669 125.4004 234.7144 15.08831495 98675,6917.906,95.438,540.926,538.617,0.0
53553.0,STARLINK-4501,PAYLOAD,2024-05-27 20:24:27,15.08833049,0.0001236,53.2177,105.7251,97.9627,262.1506,3.1481e-05,2.13e-06,0.0,0 STARLINK-4501,1 53553U 22101AC  24148.85031265  .00000213  00000-0  31481-4 0  9993,2 53553  53.2177 105.7251 0001236  97.9627 262.1506 15.08833049 98719,6917.902,95.438,540.622,538.912,0.0
53553.0,STARLINK-4501,PAYLOAD,2024-05-28 04:21:22,15.08834966,0.0001204,53.2176,104.2386,95.4213,264.6917,3.6535e-05,2.94e-06,0.0,0 STARLINK-4501,1 53553U 22101AC  24149.18151257  .00000294  00000-0  36535-4 0  9998,2 53553  53.2176 104.2386 0001204  95.4213 264.6917 15.08834966 98105,6917.896,95.438,540.594,538.928,0.0
53553.0,STARLINK-4501,PAYLOAD,2024-05-29 05:47:32,15.08837799,0.0001221,53.2177,99.4806,93.2956,266.8175,6.3114e-05,7.17e-06,0.0,0 STARLINK-4501,1 53553U 22101AC  24150.24135182  .00000717  00000-0  63114-4 0  9999,2 53553  53.2177  99.4806 0001221  93.2956 266.8175 15.08837799 98261,6917.887,95.438,540.597,538.907,0.0
53553.0,STARLINK-4501,PAYLOAD,2024-05-30 05:38:19,15.08842569,0.0001278,53.218,95.0204,89.1816,270.9322,4.9975e-05,5.08e-06,0.0,0 STARLINK-4501,1 53553U 22101AC  24151.23495085  .00000508  00000-0  49975-4 0  9997,2 53553  53.2180  95.0204 0001278  89.1816 270.9322 15.08842569 99071,6917.873,95.437,540.622,538.853,0.0
